IRIDIUM 57              
1 25273U 98019B   25025.51454140  .00000843  00000+0  28538-3 0  9997
2 25273  86.3967 204.9736 0002002  92.6014 267.5411 14.35700773404312
IRIDIUM 63              
1 25286U 98021B   25025.37697939  .00001251  00000+0  42111-3 0  9990
2 25286  86.4029 142.0282 0002035  89.5040 270.6390 14.36344907403341
IRIDIUM 69              
1 25319U 98026A   25025.40885802  .00001760  00000+0  54512-3 0  9997
2 25319  86.4029 155.7179 0004019 116.3929 243.7684 14.40707016402506
IRIDIUM 71              
1 25320U 98026B   25025.43578451  .00001404  00000+0  43149-3 0  9990
2 25320  86.4027 150.4296 0002565 148.1624 211.9731 14.40931506403286
IRIDIUM 73              
1 25344U 98032C   25025.29698332  .00001629  00000+0  40366-3 0  9995
2 25344  86.4418 107.5213 0002779 100.5550 259.5969 14.51380449409839
IRIDIUM 82              
1 25467U 98051A   25025.44965364  .00037064  00000+0  13512-2 0  9995
2 25467  86.3729 179.3746 0102507 115.2026 245.9890 15.23094422402162
